#dP2023  3 26  0  0  0.00000000      96 __u+U ITR00 FIT  IAC
## 2255      0.00000000   900.00000000 60029 0.0000000000000
+  120   C06C07C08C09C10C11C12C13C14C16C19C20C21C22C23C24C25
+        C26C27C28C29C30C32C33C34C35C36C37C38C39C40C41C42C43
+        C44C45C46E01E02E03E04E05E07E08E09E10E11E12E13E14E15
+        E18E19E21E24E25E26E27E30E31E33E34E36G01G02G03G04G05
+        G06G07G08G09G10G11G12G13G14G15G16G17G18G19G20G21G22
+        G23G24G25G26G27G28G29G30G31G32J02J03J04R01R02R03R04
+        R05R07R08R09R11R12R13R14R15R16R17R18R19R20R21R22R24
+        R25  0  0  0  0  0  0  0  0  0  0  0  0  0  0  0  0
++         8  6  6 10  7  7  6  7  6  8  7  5  7  7  8  7  8
++         7  7  8  6  7  7  7  6  7  6  5  9 10  7  6  8  7
++         7  6  8  6  6  6  5  6  6  7  5  6  6  6  7  6  6
++         6  6  6  6  6  6  6  7  5  6  6  6  6  6  6  5  6
++         5  7  5  5  5  7  6  6  6  6  6  7  6  6  6  6  6
++         5  6  6  6  5  9  6  5  6  6  9  8  7  6  7  6  6
++         7  7  6  6  7  7  6  7  6  7  6  8  8  7  7  6  5
++         8  0  0  0  0  0  0  0  0  0  0  0  0  0  0  0  0
%c M  cc GPS ccc cccc cccc cccc cccc ccccc ccccc ccccc ccccc
%c cc cc ccc ccc cccc cccc cccc cccc ccccc ccccc ccccc ccccc
%f  0.0000000  0.000000000  0.00000000000  0.000000000000000
%f  0.0000000  0.000000000  0.00000000000  0.000000000000000
%i    0    0    0    0      0      0      0      0         0
%i    0    0    0    0      0      0      0      0         0
/* INFORMATION & ANALYSIS CENTER (IAC)      ULTRA-RAPID DATA
/* S/V CLOCKS ARE ALIGNED TO GNSS TIME                      
/* G:C1WC2W R:C1PC2P E:C1XC5X C:C2IC6I J:C1CC2S             
/* PCV:IGS20_2247 OL/AL:FES2004  NONE     YN ORB:CoN CLK:CoN
*  2023 03 26  7 30  0.00000000
PC06  -2003.182467  32583.683776 -26513.398721   -196.906377
PC07 -15553.957012  27046.246245  28330.701132    -75.785059
PC08 -15384.083726  39009.125461  -5209.896581    514.303082
PC09   5277.103434  36709.715587 -19130.286712    839.511582
PC10  -6410.915918  27881.073513  31160.304676    -17.929971
PC11 -17756.632527 -21460.337832  -1520.323841    726.853770
PC12  -3855.421686 -21384.558246 -17473.673860    530.260203
PC13 -10361.296793  39527.352899 -10758.048315    238.190057
PC14 -15281.288711 -10863.989678  20672.263398     39.985084
PC16  -3583.987095  30805.113690 -28201.969336    128.047776
PC19  23121.581575   4799.663068 -14857.771881   -897.423773
PC20   7042.636624  14337.279294 -22865.902120    660.103152
PC21  14648.676725 -15937.423444  17648.491613   -908.859380
PC22  26691.137838  -7926.756731   2107.074530   -567.351737
PC23 -17491.736639   9863.351283 -19380.910813   -894.099277
PC24   -923.457879 -25503.596684 -11279.082658   -248.994359
PC25 -13872.920382  -9742.680922 -22175.650013     94.431446
PC26  10310.690484 -25500.277958   4583.068539    -97.208864
PC27  -4312.266263  17272.236332  21464.280150    116.121310
PC28 -17910.628679   2430.489274  21264.232677     85.233120
PC29  22420.966486  14692.942740  -7753.050492     98.537630
PC30  12492.274901  22671.886459  10381.801952      0.706144
PC32 -14573.184579  16023.735269 -17565.893050   -591.672796
PC33 -23055.690365  -4786.543649  14970.987954   -871.292425
PC34 -13463.211205 -22642.957616  -9262.148102    134.822598
PC35  18417.556591  -2218.906002 -20847.129884    657.724093
PC36  13302.004338  10842.787783  22023.611878   -540.886202
PC37 -11643.817121  24691.883249  -5838.884624   -797.389050
PC38 -19207.493879  37448.701772   3561.656255     67.483350
PC39  -7662.729699  26605.988128 -31691.699343     -2.318366
PC40 -21231.879034  20560.556871  29960.155234    -18.583108
PC41 -26812.527879   7581.919798  -1385.243180   -770.027256
PC42  -5539.172483 -14873.949994  23000.805130   -768.306992
PC43 -22269.576000 -15337.364352   6944.003786     13.582181
PC44   3926.774828 -17433.940788 -21456.121086     56.008286
PC45  17371.779327 -10326.335844  19229.340106    -76.953552
PC46   2004.715223  24808.829408  12651.332107    -42.497088
PE01 -16924.113173  22806.132627   8352.939234    -11.956894
PE02  16553.489117 -22894.684197  -8809.144288     28.559942
PE03   8354.977966 -15080.607775  24064.927771   -662.879984
PE04  13115.337011  18362.506620 -19144.791227    -86.600326
PE05  25411.345802  -2835.657922  14922.396951    -82.879114
PE07 -27306.634751 -11013.475725   3003.187329    -32.726839
PE08 -12945.461417 -18258.534473  19370.689769    -57.141804
PE09  27288.091149  11039.644892  -3167.941750   -882.258458
PE10  13144.474468  23634.020703 -12035.869107   -521.813857
PE11  16367.344865  14444.787532 -19988.703674   1382.525103
PE12   8105.213631  28299.130163  -2970.580212   -473.209612
PE13 -16182.871890 -15308.880744  19503.352454    -18.021772
PE14  29960.686428   3055.623103 -11354.852749    179.010221
PE15  -7952.744516 -28398.961158   2631.757339    -10.061737
PE18 -22468.169094  -4768.634245   6244.975370   -239.843541
PE19 -11197.837052  13683.960470 -23726.922325  -2918.489965
PE21 -24580.387394  13884.378681  -8917.094088   -519.680741
PE24  18402.124265   4541.863068  22709.269558  -1185.908511
PE25  24601.253503 -13636.084546   9206.922745   -602.056392
PE26 -14751.383379   7500.211551  24545.536362     56.478662
PE27 -18925.430375  -3698.023780 -22465.222102     -9.395287
PE30  -1561.382141 -19295.653132 -22403.464390    -41.195679
PE31   2171.176071  18936.760245  22647.884964   -519.569724
PE33  -4924.676947  24611.445506  15681.115296   -448.086415
PE34   4775.698701 -24731.221136 -15553.097349    -36.868101
PE36  14832.288190  -6608.007348 -24747.147863    -31.809884
PG01 -13691.161499   5267.188667  21788.299343    199.130037
PG02  12085.328567 -10446.517072 -20646.791330   -611.495811
PG03 -22477.217369  11849.034365   7398.280243   -342.844686
PG04 -21664.283015   2389.252649 -15244.950079      1.619054
PG05  18355.504382   1587.709456 -19344.198835   -120.928288
PG06   5237.884694  25905.241410  -1948.566278    583.796900
PG07  -8135.757424  19381.701073 -15494.229114    215.282315
PG08 -25754.450715  -5917.228274   4236.853099   -114.708218
PG09 -12629.577711  11012.603893 -20687.925153   -193.142599
PG10   4994.183488 -19342.178026  17521.662960    -30.123999
PG11  12214.902087  18491.856027 -14654.935566   -141.909325
PG12  23249.126382  -8772.986301   8963.631989   -356.111318
PG13  22905.957183  13611.276723  -1327.435898    496.212730
PG14  -8220.310154  20030.190816  15297.521110      6.411737
PG15  26160.505879   2944.712788   4026.023134     24.902240
PG16 -16538.392062  -5839.058446 -20379.611897   -513.142000
PG17   1675.946345  16509.771590  21146.222976    707.441203
PG18   5840.370044 -22273.427691 -13106.696304   -196.026222
PG19  12144.606887  17903.157824  15367.404366    295.077346
PG20  11302.391480  10601.415102 -21539.664327    442.723415
PG21 -16342.303751  -4340.064607  21231.642812    154.326373
PG22 -14814.021949 -17707.655800  13720.919396    452.356710
PG23  15201.645352 -20210.970925   7872.183015     12.777337
PG24  15774.411278   -964.694268  21023.171388   -126.746188
PG25  20201.038134 -17013.903722   -200.873315    430.668119
PG26  -5962.861675 -15462.422215 -20814.220924    241.970852
PG27 -22432.555107 -13236.723968  -6473.779678     72.823016
PG28  -5143.955581 -26060.783811     -7.196998     52.264265
PG29  16506.586945  -6916.062220 -19702.074385   -592.638262
PG30    -25.323362  25867.364127  -5268.727645   -525.320472
PG31  -7974.684426 -24289.571470  -6478.265304   -212.498043
PG32  -5806.765874 -16978.654414  19820.534641   -434.061109
PJ02 -29745.718637  29944.296539   6056.515728     -1.307830
PJ03 -25824.060865  23271.164637  28937.974964      1.383441
PJ04 -33608.573679  22269.556157  -7318.876732     94.147746
PR01  25397.507535   -931.665275  -2268.809228     25.462876
PR02  18534.293326  -8136.115923  15531.068349    -23.065686
PR03    965.746987 -10968.260587  23058.455302     74.866874
PR04 -16643.142931  -7541.950897  17838.008426    180.843533
PR05 -25356.607753   -225.102198   2892.173557    109.935542
PR07   -184.181639  10901.207673 -23015.505818     52.518983
PR08  16860.535209   7423.750469 -17564.652367    -70.071866
PR09 -13712.259946  20042.493681  -7665.724893    111.213829
PR11   4501.260481  13594.272865  21111.743650    -24.672391
PR12  13741.274526  -5131.145334  20883.690868     25.943990
PR13  14223.235310 -18957.228712   9410.140857    -33.307244
PR14   6066.511174 -22851.263350  -9590.941372     24.472668
PR15  -5183.241025 -12708.203009 -21487.942867     90.221427
PR16 -13472.387262   4947.305489 -21075.662230     12.803775
PR17  -6330.999898 -20896.004446 -13156.334726    615.593492
PR18 -14681.278622 -20664.536400   3130.307693     73.337085
PR19 -15404.560283 -11328.976865  16884.036465   -226.709172
PR20  -6835.954185   8534.831299  23047.323029    -89.994870
PR21   7363.571645  21449.655011  11693.892677   -383.175801
PR22  14236.639750  20779.099344  -3938.531095     76.518018
PR24   6499.007896  -9612.199468 -22700.228593    156.782880
PR25   5041.854091  21196.790663  13280.775582     58.811359
EOF
